GECAM-B                 
1 47235U 20094B   26058.19405615  .00003224  00000+0  23073-3 0  9996
2 47235  28.9982  10.8844 0010635 257.2071 102.7339 15.01652363285175
STARLINK-5774           
1 56029U 23042AV  26068.31260590 -.00000061  00000+0  10528-4 0  9998
2 56029  43.0039  45.1425 0001342 273.0375  87.0313 15.02531981163008
